# Spacecraft: NOAA-15
# Epoch: 21st May 2018 19:21:11 UTC
#
# Semi-major axis  : 7183.760 km
# Eccentricity     : 0.000948
# Inclination      : 98.77050
# Ascending Node   : 158.2190
# Arg of Periapsis : 307.8085
# Mean Anomaly     :  52.2235
#
# Reference Frame  : TEME
# Note: distance is in kms and time is in UNIX time format
#
#t x y z
1526930471 -6666.21099 2666.08881 14.6020288
1526930481 -6661.54473 2676.46204 88.260695
1526930491 -6656.161 2686.54701 161.909855
1526930501 -6650.06041 2696.34264 235.541578
1526930511 -6643.24363 2705.84789 309.147934
1526930521 -6635.71142 2715.06172 382.720996
1526930531 -6627.46459 2723.98317 456.252843
1526930541 -6618.50405 2732.61128 529.735556
1526930551 -6608.8308 2740.94512 603.161224
1526930561 -6598.44588 2748.98381 676.521941
1526930571 -6587.35043 2756.72648 749.80981
1526930581 -6575.54566 2764.17231 823.01694
1526930591 -6563.03287 2771.32051 896.135452
1526930601 -6549.81342 2778.17032 969.157474
1526930611 -6535.88875 2784.72099 1042.07515
1526930621 -6521.26038 2790.97185 1114.88062
1526930631 -6505.9299 2796.92221 1187.56606
1526930641 -6489.89898 2802.57145 1260.12365
1526930651 -6473.16936 2807.91897 1332.54557
1526930661 -6455.74287 2812.9642 1404.82404
1526930671 -6437.62139 2817.70661 1476.95127
1526930681 -6418.8069 2822.14569 1548.91951
1526930691 -6399.30144 2826.28097 1620.72101
1526930701 -6379.10712 2830.11201 1692.34805
1526930711 -6358.22615 2833.63842 1763.79292
1526930721 -6336.66079 2836.85982 1835.04793
1526930731 -6314.41337 2839.77586 1906.10543
1526930741 -6291.48631 2842.38626 1976.95777
1526930751 -6267.8821 2844.69073 2047.59733
1526930761 -6243.60329 2846.68903 2118.01652
1526930771 -6218.65252 2848.38096 2188.20775
1526930781 -6193.0325 2849.76634 2258.16348
1526930791 -6166.74598 2850.84504 2327.8762
1526930801 -6139.79583 2851.61694 2397.3384
1526930811 -6112.18497 2852.08197 2466.54262
1526930821 -6083.91637 2852.24009 2535.48141
1526930831 -6054.99311 2852.09129 2604.14737
1526930841 -6025.41831 2851.6356 2672.53312
1526930851 -5995.19518 2850.87307 2740.6313
1526930861 -5964.32698 2849.8038 2808.4346
1526930871 -5932.81706 2848.42791 2875.93572
1526930881 -5900.66881 2846.74555 2943.12743
1526930891 -5867.88573 2844.75691 3010.00248
1526930901 -5834.47135 2842.46222 3076.55371
1526930911 -5800.42929 2839.86174 3142.77396
1526930921 -5765.76323 2836.95575 3208.65611
1526930931 -5730.47691 2833.74457 3274.19309
1526930941 -5694.57416 2830.22855 3339.37785
1526930951 -5658.05884 2826.4081 3404.20341
1526930961 -5620.93491 2822.28361 3468.66278
1526930971 -5583.20637 2817.85556 3532.74906
1526930981 -5544.8773 2813.12441 3596.45535
1526930991 -5505.95185 2808.0907 3659.77482
1526931001 -5466.43421 2802.75496 3722.70067
1526931011 -5426.32865 2797.11779 3785.22615
1526931021 -5385.63951 2791.1798 3847.34453
1526931031 -5344.37117 2784.94163 3909.04915
1526931041 -5302.5281 2778.40397 3970.33339
1526931051 -5260.1148 2771.56752 4031.19067
1526931061 -5217.13586 2764.43303 4091.61446
1526931071 -5173.59592 2757.00128 4151.59827
1526931081 -5129.49966 2749.27308 4211.13566
1526931091 -5084.85186 2741.24926 4270.22026
1526931101 -5039.65732 2732.93069 4328.84571
1526931111 -4993.92093 2724.31828 4387.00573
1526931121 -4947.64761 2715.41297 4444.69408
1526931131 -4900.84236 2706.21572 4501.90456
1526931141 -4853.51022 2696.72752 4558.63106
1526931151 -4805.6563 2686.94941 4614.86747
1526931161 -4757.28576 2676.88244 4670.60777
1526931171 -4708.40381 2666.52771 4725.84598
1526931181 -4659.01573 2655.88634 4780.57618
1526931191 -4609.12683 2644.95948 4834.7925
1526931201 -4558.74249 2633.74831 4888.48913
1526931211 -4507.86815 2622.25404 4941.6603
1526931221 -4456.50929 2610.47793 4994.30033
1526931231 -4404.67144 2598.42124 5046.40357
1526931241 -4352.36018 2586.08528 5097.96443
1526931251 -4299.58116 2573.47138 5148.97739
1526931261 -4246.34005 2560.5809 5199.43698
1526931271 -4192.6426 2547.41524 5249.3378
1526931281 -4138.49458 2533.97583 5298.6745
1526931291 -4083.90183 2520.26411 5347.44179
1526931301 -4028.87024 2506.28156 5395.63445
1526931311 -3973.40571 2492.0297 5443.24732
1526931321 -3917.51424 2477.51007 5490.2753
1526931331 -3861.20182 2462.72423 5536.71335
1526931341 -3804.47454 2447.67377 5582.5565
1526931351 -3747.33849 2432.36033 5627.79984
1526931361 -3689.79982 2416.78556 5672.43853
1526931371 -3631.86474 2400.95113 5716.46779
1526931381 -3573.53946 2384.85876 5759.8829
1526931391 -3514.83028 2368.51018 5802.67922
1526931401 -3455.7435 2351.90716 5844.85217
1526931411 -3396.28549 2335.05148 5886.39724
1526931421 -3336.46265 2317.94496 5927.30998
1526931431 -3276.2814 2300.58946 5967.58601
1526931441 -3215.74823 2282.98683 6007.22102
1526931451 -3154.86965 2265.13898 6046.21079
1526931461 -3093.6522 2247.04784 6084.55112
1526931471 -3032.10246 2228.71534 6122.23793
1526931481 -2970.22707 2210.14347 6159.26719
1526931491 -2908.03268 2191.33423 6195.63494
1526931501 -2845.52596 2172.28964 6231.33728
1526931511 -2782.71365 2153.01175 6266.3704
1526931521 -2719.60249 2133.50265 6300.73057
1526931531 -2656.19928 2113.76444 6334.4141
1526931541 -2592.51082 2093.79923 6367.41739
1526931551 -2528.54398 2073.60918 6399.73693
1526931561 -2464.30561 2053.19647 6431.36926
1526931571 -2399.80263 2032.56328 6462.31099
1526931581 -2335.04197 2011.71185 6492.55884
1526931591 -2270.03059 1990.64442 6522.10956
1526931601 -2204.77548 1969.36325 6550.96
1526931611 -2139.28365 1947.87063 6579.10708
1526931621 -2073.56213 1926.16889 6606.5478
1526931631 -2007.61799 1904.26034 6633.27923
1526931641 -1941.45832 1882.14736 6659.29852
1526931651 -1875.09022 1859.83232 6684.60289
1526931661 -1808.52082 1837.31762 6709.18964
1526931671 -1741.75728 1814.60567 6733.05616
1526931681 -1674.80676 1791.69894 6756.19989
1526931691 -1607.67645 1768.59987 6778.61837
1526931701 -1540.37358 1745.31096 6800.30922
1526931711 -1472.90536 1721.8347 6821.27012
1526931721 -1405.27904 1698.17363 6841.49883
1526931731 -1337.50188 1674.33028 6860.99322
1526931741 -1269.58117 1650.30722 6879.75119
1526931751 -1201.52419 1626.10703 6897.77075
1526931761 -1133.33825 1601.73232 6915.05
1526931771 -1065.03068 1577.1857 6931.58708
1526931781 -996.608809 1552.46981 6947.38024
1526931791 -928.079979 1527.58731 6962.42781
1526931801 -859.451549 1502.54087 6976.72818
1526931811 -790.730887 1477.33319 6990.27985
1526931821 -721.925368 1451.96696 7003.08136
1526931831 -653.042379 1426.44493 7015.13136
1526931841 -584.089313 1400.76982 7026.42858
1526931851 -515.07357 1374.94441 7036.97181
1526931861 -446.002558 1348.97146 7046.75996
1526931871 -376.883688 1322.85376 7055.79197
1526931881 -307.72438 1296.59411 7064.06689
1526931891 -238.532053 1270.19535 7071.58386
1526931901 -169.314133 1243.6603 7078.34209
1526931911 -100.078046 1216.99182 7084.34085
1526931921 -30.8312223 1190.19276 7089.57954
1526931931 38.4189095 1163.26601 7094.05758
1526931941 107.664919 1136.21445 7097.77453
1526931951 176.899379 1109.041 7100.73
1526931961 246.11486 1081.74856 7102.92368
1526931971 315.303937 1054.34008 7104.35536
1526931981 384.45919 1026.81849 7105.02488
1526931991 453.573199 999.186739 7104.93221
1526932001 522.63855 971.447805 7104.07736
1526932011 591.647837 943.60466 7102.46043
1526932021 660.593658 915.660294 7100.08161
1526932031 729.468617 887.617706 7096.94117
1526932041 798.265328 859.479906 7093.03946
1526932051 866.976412 831.249913 7088.37692
1526932061 935.594502 802.930757 7082.95405
1526932071 1004.11224 774.525477 7076.77145
1526932081 1072.52227 746.037122 7069.82979
1526932091 1140.81727 717.468747 7062.12983
1526932101 1208.98991 688.823419 7053.6724
1526932111 1277.03287 660.104211 7044.45844
1526932121 1344.93887 631.314204 7034.48893
1526932131 1412.70062 602.456488 7023.76496
1526932141 1480.31086 573.534158 7012.28768
1526932151 1547.76234 544.550316 7000.05834
1526932161 1615.04782 515.508073 6987.07827
1526932171 1682.1601 486.410544 6973.34886
1526932181 1749.09197 457.26085 6958.87159
1526932191 1815.83627 428.062118 6943.64803
1526932201 1882.38583 398.81748 6927.67982
1526932211 1948.73352 369.530072 6910.96869
1526932221 2014.87224 340.203036 6893.51642
1526932231 2080.79488 310.839517 6875.32491
1526932241 2146.49439 281.442666 6856.39612
1526932251 2211.96371 252.015633 6836.73207
1526932261 2277.19584 222.561576 6816.3349
1526932271 2342.18377 193.083653 6795.20679
1526932281 2406.92055 163.585025 6773.35001
1526932291 2471.39924 134.068855 6750.76693
1526932301 2535.61291 104.53831 6727.45996
1526932311 2599.5547 74.9965548 6703.43161
1526932321 2663.21774 45.4467581 6678.68447
1526932331 2726.59521 15.8920883 6653.2212
1526932341 2789.68032 -13.6642856 6627.04453
1526932351 2852.46631 -43.2191943 6600.15728
1526932361 2914.94645 -72.7694689 6572.56233
1526932371 2977.11404 -102.311941 6544.26265
1526932381 3038.96241 -131.843443 6515.26128
1526932391 3100.48494 -161.360808 6485.56134
1526932401 3161.67504 -190.860873 6455.16601
1526932411 3222.52614 -220.340473 6424.07855
1526932421 3283.03173 -249.796448 6392.30232
1526932431 3343.18531 -279.225641 6359.8407
1526932441 3402.98044 -308.624895 6326.6972
1526932451 3462.41072 -337.99106 6292.87537
1526932461 3521.46976 -367.320986 6258.37884
1526932471 3580.15125 -396.61153 6223.2113
1526932481 3638.44889 -425.859551 6187.37654
1526932491 3696.35643 -455.061913 6150.8784
1526932501 3753.86767 -484.215485 6113.7208
1526932511 3810.97644 -513.317143 6075.90771
1526932521 3867.67662 -542.363766 6037.4432
1526932531 3923.96213 -571.35224 5998.3314
1526932541 3979.82694 -600.279458 5958.57649
1526932551 4035.26506 -629.142317 5918.18275
1526932561 4090.27055 -657.937725 5877.1545
1526932571 4144.83751 -686.662593 5835.49615
1526932581 4198.96009 -715.313843 5793.21216
1526932591 4252.63249 -743.888402 5750.30706
1526932601 4305.84896 -772.383207 5706.78547
1526932611 4358.60378 -800.795204 5662.65203
1526932621 4410.89132 -829.121345 5617.91149
1526932631 4462.70595 -857.358595 5572.56865
